start=new Date('2022-07-02T00:00:00.000Z').valueOf();
sats=[{"FILE":"3506285","MEAN_MOTION":"15.06395156","MEAN_ELEMENT_THEORY":"SGP4","TLE_LINE1":"1 45555U 20025AA  22182.56233499  .00001614  00000-0  12727-3 0  9993","TIME_SYSTEM":"UTC","OBJECT_ID":"2020-025AA","ECCENTRICITY":"0.00014920","SEMIMAJOR_AXIS":"6925.363","EPOCH":"2022-07-01T13:29:45.743136","ELEMENT_SET_NO":"999","MEAN_ANOMALY":"275.4104","OBJECT_TYPE":"PAYLOAD","OBJECT_NAME":"STARLINK-1327","SITE":"AFETR","RCS_SIZE":"LARGE","CLASSIFICATION_TYPE":"U","EPHEMERIS_TYPE":"0","NORAD_CAT_ID":"45555","PERIOD":"95.592","REV_AT_EPOCH":"12232","BSTAR":"0.00012727000000","ARG_OF_PERICENTER":"84.7055","MEAN_MOTION_DDOT":"0.0000000000000","RA_OF_ASC_NODE":"14.1010","INCLINATION":"53.0571","LAUNCH_DATE":"2020-04-22","PERIAPSIS":"546.195","COUNTRY_CODE":"US","TLE_LINE2":"2 45555  53.0571  14.1010 0001492  84.7055 275.4104 15.06395156122323","CENTER_NAME":"EARTH","DECAY_DATE":null,"REF_FRAME":"TEME","APOAPSIS":"548.262","GP_ID":"207206135","MEAN_MOTION_DOT":"0.00001614"},{"MEAN_ELEMENT_THEORY":"SGP4","TLE_LINE1":"1 45556U 20025AB  22182.53652611 -.00000127  00000-0  10385-4 0  9990","TIME_SYSTEM":"UTC","FILE":"3506285","MEAN_MOTION":"15.06395763","OBJECT_TYPE":"PAYLOAD","SEMIMAJOR_AXIS":"6925.362","ECCENTRICITY":"0.00016490","OBJECT_ID":"2020-025AB","EPOCH":"2022-07-01T12:52:35.855904","MEAN_ANOMALY":"288.9518","ELEMENT_SET_NO":"999","ARG_OF_PERICENTER":"71.1649","CLASSIFICATION_TYPE":"U","OBJECT_NAME":"STARLINK-1334","SITE":"AFETR","RCS_SIZE":"LARGE","PERIOD":"95.592","NORAD_CAT_ID":"45556","EPHEMERIS_TYPE":"0","BSTAR":"0.00001038500000","REV_AT_EPOCH":"12232","APOAPSIS":"548.369","REF_FRAME":"TEME","DECAY_DATE":null,"CENTER_NAME":"EARTH","GP_ID":"207206385","MEAN_MOTION_DOT":"-0.00000127","INCLINATION":"53.0548","RA_OF_ASC_NODE":"14.2390","MEAN_MOTION_DDOT":"0.0000000000000","PERIAPSIS":"546.085","LAUNCH_DATE":"2020-04-22","TLE_LINE2":"2 45556  53.0548  14.2390 0001649  71.1649 288.9518 15.06395763122325","COUNTRY_CODE":"US"},{"PERIAPSIS":"546.336","LAUNCH_DATE":"2020-04-22","TLE_LINE2":"2 45557  53.0573  14.1977 0001269  98.3991 261.7141 15.06399714122324","COUNTRY_CODE":"US","INCLINATION":"53.0573","RA_OF_ASC_NODE":"14.1977","MEAN_MOTION_DDOT":"0.0000000000000","MEAN_MOTION_DOT":"0.00001853","REF_FRAME":"TEME","APOAPSIS":"548.093","CENTER_NAME":"EARTH","DECAY_DATE":null,"GP_ID":"207207637","NORAD_CAT_ID":"45557","PERIOD":"95.592","EPHEMERIS_TYPE":"0","BSTAR":"0.00014323000000","REV_AT_EPOCH":"12232","CLASSIFICATION_TYPE":"U","SITE":"AFETR","OBJECT_NAME":"STARLINK-1336","RCS_SIZE":"LARGE","ARG_OF_PERICENTER":"98.3991","MEAN_ANOMALY":"261.7141","ELEMENT_SET_NO":"999","ECCENTRICITY":"0.00012690","SEMIMAJOR_AXIS":"6925.349","OBJECT_ID":"2020-025AC","EPOCH":"2022-07-01T13:03:13.026528","OBJECT_TYPE":"PAYLOAD","MEAN_MOTION":"15.06399714","FILE":"3506285","TLE_LINE1":"1 45557U 20025AC  22182.54390077  .00001853  00000-0  14323-3 0  9998","TIME_SYSTEM":"UTC","MEAN_ELEMENT_THEORY":"SGP4"},{"ARG_OF_PERICENTER":"78.9882","EPHEMERIS_TYPE":"0","PERIOD":"95.593","NORAD_CAT_ID":"45558","REV_AT_EPOCH":"12232","BSTAR":"0.00010198000000","RCS_SIZE":"LARGE","SITE":"AFETR","OBJECT_NAME":"STARLINK-1342","CLASSIFICATION_TYPE":"U","MEAN_MOTION_DOT":"0.00001238","CENTER_NAME":"EARTH","DECAY_DATE":null,"APOAPSIS":"548.202","REF_FRAME":"TEME","GP_ID":"207207888","LAUNCH_DATE":"2020-04-22","PERIAPSIS":"546.270","TLE_LINE2":"2 45558  53.0564  14.0535 0001395  78.9882 281.1264 15.06392710122328","COUNTRY_CODE":"US","MEAN_MOTION_DDOT":"0.0000000000000","RA_OF_ASC_NODE":"14.0535","INCLINATION":"53.0564","TLE_LINE1":"1 45558U 20025AD  22182.57708127  .00001238  00000-0  10198-3 0  9994","TIME_SYSTEM":"UTC","MEAN_ELEMENT_THEORY":"SGP4","MEAN_MOTION":"15.06392710","FILE":"3506285","OBJECT_TYPE":"PAYLOAD","ELEMENT_SET_NO":"999","MEAN_ANOMALY":"281.1264","OBJECT_ID":"2020-025AD","ECCENTRICITY":"0.00013950","SEMIMAJOR_AXIS":"6925.371","EPOCH":"2022-07-01T13:50:59.821728"},{"MEAN_MOTION_DOT":"0.00000886","APOAPSIS":"548.204","REF_FRAME":"TEME","DECAY_DATE":null,"CENTER_NAME":"EARTH","GP_ID":"207213278","PERIAPSIS":"546.289","LAUNCH_DATE":"2020-04-22","TLE_LINE2":"2 45559  53.0560  12.9442 0001383  71.0021 289.1117 15.06389276121760","COUNTRY_CODE":"US","INCLINATION":"53.0560","MEAN_MOTION_DDOT":"0.0000000000000","RA_OF_ASC_NODE":"12.9442","ARG_OF_PERICENTER":"71.0021","PERIOD":"95.593","NORAD_CAT_ID":"45559","EPHEMERIS_TYPE":"0","BSTAR":"0.00007838900000","REV_AT_EPOCH":"12176","CLASSIFICATION_TYPE":"U","SITE":"AFETR","OBJECT_NAME":"STARLINK-1344","RCS_SIZE":"LARGE","OBJECT_TYPE":"PAYLOAD","MEAN_ANOMALY":"289.1117","ELEMENT_SET_NO":"999","SEMIMAJOR_AXIS":"6925.381","ECCENTRICITY":"0.00013830","OBJECT_ID":"2020-025AE","EPOCH":"2022-07-01T19:24:01.528128","TLE_LINE1":"1 45559U 20025AE  22182.80835102  .00000886  00000-0  78389-4 0  9990","TIME_SYSTEM":"UTC","MEAN_ELEMENT_THEORY":"SGP4","MEAN_MOTION":"15.06389276","FILE":"3506315"},{"INCLINATION":"53.0562","RA_OF_ASC_NODE":"3.0450","MEAN_MOTION_DDOT":"0.0000000000000","PERIAPSIS":"546.091","LAUNCH_DATE":"2020-04-22","COUNTRY_CODE":"US","TLE_LINE2":"2 45560  53.0562   3.0450 0001624  77.8629 282.2542 15.06399348121903","REF_FRAME":"TEME","APOAPSIS":"548.340","DECAY_DATE":null,"CENTER_NAME":"EARTH","GP_ID":"207213008","MEAN_MOTION_DOT":"-0.00000906","CLASSIFICATION_TYPE":"U","SITE":"AFETR","OBJECT_NAME":"STARLINK-1346","RCS_SIZE":"LARGE","PERIOD":"95.592","NORAD_CAT_ID":"45560","EPHEMERIS_TYPE":"0","REV_AT_EPOCH":"12190","BSTAR":"-0.00004189800000","ARG_OF_PERICENTER":"77.8629","ECCENTRICITY":"0.00016240","SEMIMAJOR_AXIS":"6925.351","OBJECT_ID":"2020-025AF","EPOCH":"2022-07-01T19:09:25.182432","MEAN_ANOMALY":"282.2542","ELEMENT_SET_NO":"999","OBJECT_TYPE":"PAYLOAD","FILE":"3506315","MEAN_MOTION":"15.06399348","MEAN_ELEMENT_THEORY":"SGP4","TLE_LINE1":"1 45560U 20025AF  22182.79820813 -.00000906  00000-0 -41898-4 0  9993","TIME_SYSTEM":"UTC"},{"MEAN_MOTION_DOT":"0.00006218","DECAY_DATE":null,"CENTER_NAME":"EARTH","REF_FRAME":"TEME","APOAPSIS":"524.036","GP_ID":"207207137","LAUNCH_DATE":"2020-04-22","PERIAPSIS":"523.583","TLE_LINE2":"2 45561  53.0571 282.6168 0000328  31.0902 329.0109 15.14068703123617","COUNTRY_CODE":"US","RA_OF_ASC_NODE":"282.6168","MEAN_MOTION_DDOT":"0.0000000000000","INCLINATION":"53.0571","ARG_OF_PERICENTER":"31.0902","EPHEMERIS_TYPE":"0","NORAD_CAT_ID":"45561","PERIOD":"95.108","REV_AT_EPOCH":"12361","BSTAR":"0.00035403000000","RCS_SIZE":"LARGE","SITE":"AFETR","OBJECT_NAME":"STARLINK-1348","CLASSIFICATION_TYPE":"U","OBJECT_TYPE":"PAYLOAD","ELEMENT_SET_NO":"999","MEAN_ANOMALY":"329.0109","OBJECT_ID":"2020-025AG","SEMIMAJOR_AXIS":"6901.944","ECCENTRICITY":"0.00003280","EPOCH":"2022-07-01T13:26:23.156736","TLE_LINE1":"1 45561U 20025AG  22182.55999024  .00006218  00000-0  35403-3 0  9993","TIME_SYSTEM":"UTC","MEAN_ELEMENT_THEORY":"SGP4","MEAN_MOTION":"15.14068703","FILE":"3506285"},{"MEAN_MOTION":"15.06388400","FILE":"3506285","TIME_SYSTEM":"UTC","TLE_LINE1":"1 45562U 20025AH  22182.55495889 -.00000799  00000-0 -34791-4 0  9994","MEAN_ELEMENT_THEORY":"SGP4","MEAN_ANOMALY":"273.0022","ELEMENT_SET_NO":"999","EPOCH":"2022-07-01T13:19:08.448096","ECCENTRICITY":"0.00011940","SEMIMAJOR_AXIS":"6925.384","OBJECT_ID":"2020-025AH","OBJECT_TYPE":"PAYLOAD","BSTAR":"-0.00003479100000","REV_AT_EPOCH":"12232","PERIOD":"95.593","NORAD_CAT_ID":"45562","EPHEMERIS_TYPE":"0","CLASSIFICATION_TYPE":"U","RCS_SIZE":"LARGE","SITE":"AFETR","OBJECT_NAME":"STARLINK-1354","ARG_OF_PERICENTER":"87.1104","COUNTRY_CODE":"US","TLE_LINE2":"2 45562  53.0552  14.1324 0001194  87.1104 273.0022 15.06388400122326","PERIAPSIS":"546.422","LAUNCH_DATE":"2020-04-22","INCLINATION":"53.0552","RA_OF_ASC_NODE":"14.1324","MEAN_MOTION_DDOT":"0.0000000000000","MEAN_MOTION_DOT":"-0.00000799","GP_ID":"207207388","APOAPSIS":"548.076","REF_FRAME":"TEME","CENTER_NAME":"EARTH","DECAY_DATE":null},{"MEAN_ELEMENT_THEORY":"SGP4","TIME_SYSTEM":"UTC","TLE_LINE1":"1 45563U 20025AJ  22182.23796920 -.00000285  00000-0 -21159-6 0  9996","FILE":"3506285","MEAN_MOTION":"15.06394793","OBJECT_TYPE":"PAYLOAD","EPOCH":"2022-07-01T05:42:40.538880","SEMIMAJOR_AXIS":"6925.365","ECCENTRICITY":"0.00015430","OBJECT_ID":"2020-025AJ","MEAN_ANOMALY":"266.6373","ELEMENT_SET_NO":"999","ARG_OF_PERICENTER":"93.4792","CLASSIFICATION_TYPE":"U","SITE":"AFETR","RCS_SIZE":"LARGE","OBJECT_NAME":"STARLINK-1355","REV_AT_EPOCH":"12227","BSTAR":"-0.00000021159000","NORAD_CAT_ID":"45563","PERIOD":"95.592","EPHEMERIS_TYPE":"0","GP_ID":"207206136","REF_FRAME":"TEME","APOAPSIS":"548.298","DECAY_DATE":null,"CENTER_NAME":"EARTH","MEAN_MOTION_DOT":"-0.00000285","INCLINATION":"53.0555","RA_OF_ASC_NODE":"15.5668","MEAN_MOTION_DDOT":"0.0000000000000","COUNTRY_CODE":"US","TLE_LINE2":"2 45563  53.0555  15.5668 0001543  93.4792 266.6373 15.06394793122270","PERIAPSIS":"546.161","LAUNCH_DATE":"2020-04-22"},{"ARG_OF_PERICENTER":"90.3954","CLASSIFICATION_TYPE":"U","SITE":"AFETR","OBJECT_NAME":"STARLINK-1356","RCS_SIZE":"LARGE","PERIOD":"95.592","NORAD_CAT_ID":"45564","EPHEMERIS_TYPE":"0","BSTAR":"0.00013933000000","REV_AT_EPOCH":"12229","REF_FRAME":"TEME","APOAPSIS":"548.193","CENTER_NAME":"EARTH","DECAY_DATE":null,"GP_ID":"207206386","MEAN_MOTION_DOT":"0.00001794","INCLINATION":"53.0565","RA_OF_ASC_NODE":"14.9837","MEAN_MOTION_DDOT":"0.0000000000000","PERIAPSIS":"546.256","LAUNCH_DATE":"2020-04-22","TLE_LINE2":"2 45564  53.0565  14.9837 0001399  90.3954 269.7195 15.06396463122292","COUNTRY_CODE":"US","MEAN_ELEMENT_THEORY":"SGP4","TLE_LINE1":"1 45564U 20025AK  22182.36697402  .00001794  00000-0  13933-3 0  9998","TIME_SYSTEM":"UTC","FILE":"3506285","MEAN_MOTION":"15.06396463","OBJECT_TYPE":"PAYLOAD","SEMIMAJOR_AXIS":"6925.359","ECCENTRICITY":"0.00013990","OBJECT_ID":"2020-025AK","EPOCH":"2022-07-01T08:48:26.555328","MEAN_ANOMALY":"269.7195","ELEMENT_SET_NO":"999"}];
